OBJECT_NAME,OBJECT_ID,EPOCH,MEAN_MOTION,ECCENTRICITY,INCLINATION,RA_OF_ASC_NODE,ARG_OF_PERICENTER,MEAN_ANOMALY,EPHEMERIS_TYPE,CLASSIFICATION_TYPE,NORAD_CAT_ID,ELEMENT_SET_NO,REV_AT_EPOCH,BSTAR,MEAN_MOTION_DOT,MEAN_MOTION_DDOT
ONEWEB-0395,2021-132G,2026-06-17T14:59:44.000448,13.11418578,.00020321,87.8887,20.9802,88.9632,271.1729,0,U,50475,999,21577,-.12221099E-2,-.42E-5,0
ONEWEB-0396,2021-132H,2026-06-17T20:24:11.051424,13.18685271,.00019145,87.9173,335.3226,87.7940,272.3411,0,U,50476,999,22172,-.15607726E-4,.7E-7,0
ONEWEB-0397,2021-132J,2026-06-17T20:46:02.413344,13.18685527,.00018348,87.9172,335.3195,84.6624,275.4718,0,U,50477,999,22170,.70142161E-4,.41E-6,0
ONEWEB-0398,2021-132K,2026-06-17T12:23:29.397408,13.11414333,.00019633,87.8892,20.9924,94.2490,265.8862,0,U,50478,999,21565,.54633921E-3,.206E-5,0
ONEWEB-0399,2021-132L,2026-06-17T12:03:58.385376,13.11416018,.00021303,87.8894,21.0060,74.2449,285.8914,0,U,50479,999,21564,.14835595E-2,.539E-5,0
ONEWEB-0400,2021-132M,2026-06-17T20:14:28.747392,13.18685556,.00018886,87.9171,335.3137,98.0636,262.0710,0,U,50480,999,22169,-.17618375E-3,-.57E-6,0
ONEWEB-0401,2021-132N,2026-06-17T21:20:01.968288,13.18684812,.00016536,87.9172,335.3020,89.2835,270.8487,0,U,50481,999,22170,.68235494E-4,.4E-6,0
ONEWEB-0402,2021-132P,2026-06-17T22:15:53.303328,13.18686293,.00014903,87.9171,335.2834,81.2014,278.9287,0,U,50482,999,22173,.36527865E-4,.27E-6,0
ONEWEB-0403,2021-132Q,2026-06-17T21:03:02.142432,13.18685286,.00019945,87.9171,335.3179,91.0026,269.1335,0,U,50483,999,22168,.16873341E-3,.79E-6,0
ONEWEB-0404,2021-132R,2026-06-17T11:37:06.220992,13.11419334,.00021337,87.8889,21.0082,82.4020,277.7350,0,U,50484,999,21573,.20652128E-3,.86E-6,0
ONEWEB-0405,2021-132S,2026-06-17T21:22:27.909120,13.18686488,.00020749,87.9173,335.2998,105.1570,254.9792,0,U,50485,999,22208,.13868065E-3,.68E-6,0
ONEWEB-0406,2021-132T,2026-06-17T21:10:19.332480,13.18684922,.00023389,87.9167,335.3178,85.6567,274.4832,0,U,50486,999,22171,.5195157E-4,.33E-6,0
ONEWEB-0407,2021-132U,2026-06-17T21:00:38.190528,13.18674990,.00016999,87.9173,335.3114,98.8780,261.2544,0,U,50487,999,22165,.6425678E-2,.2546E-4,0
ONEWEB-0409,2021-132V,2026-06-17T02:25:18.688800,13.11420380,.00021199,87.8893,21.0724,85.8977,274.2393,0,U,50488,999,21557,.33060453E-3,.13E-5,0
ONEWEB-0412,2021-132W,2026-06-17T22:32:52.237536,13.18685352,.00016261,87.9169,335.3067,86.2750,273.8569,0,U,50489,999,22175,.45654786E-4,.31E-6,0
ONEWEB-0413,2021-132X,2026-06-17T20:50:55.063104,13.18687047,.00015502,87.9161,335.3197,91.4402,268.6908,0,U,50490,999,22168,.28580085E-3,.126E-5,0
ONEWEB-0414,2021-132Y,2026-06-17T22:18:18.571968,13.18685712,.00018172,87.9175,335.2893,87.1642,272.9698,0,U,50491,999,22172,.89107162E-4,.48E-6,0
ONEWEB-0417,2021-132Z,2026-06-17T20:41:11.132160,13.18685731,.00020785,87.9163,335.3223,90.6338,269.5032,0,U,50492,999,22169,.10774991E-4,.17E-6,0
ONEWEB-0418,2021-132AA,2026-06-17T20:55:32.229120,13.18685020,.00021565,87.9170,335.3203,91.0598,269.0781,0,U,50493,999,22175,.1725097E-3,.81E-6,0
ONEWEB-0419,2021-132AB,2026-06-17T21:22:21.075744,13.18665453,.00021408,87.9172,335.3161,96.9167,263.2208,0,U,50494,999,22167,.27849364E-4,.24E-6,0
ONEWEB-0420,2021-132AC,2026-06-17T22:20:43.761120,13.18686568,.00016677,87.9163,335.3107,96.8904,263.2418,0,U,50495,999,22167,.84613792E-4,.46E-6,0
ONEWEB-0421,2021-132AD,2026-06-17T22:11:01.229856,13.18685182,.00017525,87.9168,335.3098,81.1973,278.9358,0,U,50496,999,22171,.150349E-4,.19E-6,0
ONEWEB-0424,2021-132AE,2026-06-17T21:15:10.800288,13.18684858,.00021246,87.9171,335.3157,100.5048,259.6323,0,U,50497,999,22173,.58190795E-4,.36E-6,0
ONEWEB-0426,2021-132AF,2026-06-17T22:04:56.080128,13.18686592,.00021909,87.9171,335.2998,75.8927,284.2449,0,U,50498,999,22168,-.77554287E-3,-.293E-5,0
ONEWEB-0427,2021-132AG,2026-06-17T21:12:45.154944,13.18685005,.00020485,87.9172,335.2959,90.0072,270.1295,0,U,50499,999,22170,.3733866E-4,.28E-6,0
ONEWEB-0429,2021-132AH,2026-06-17T20:53:19.560192,13.18685480,.00017562,87.9165,335.3229,94.5682,265.5651,0,U,50500,999,22167,.45771876E-4,.31E-6,0
ONEWEB-0430,2021-132AJ,2026-06-17T20:36:19.355040,13.18686599,.00018258,87.9164,335.3234,101.1831,258.9506,0,U,50501,999,22171,-.2174741E-4,.4E-7,0
ONEWEB-0432,2021-132AK,2026-06-17T21:39:51.933888,13.17154964,.0002205,87.9169,335.2931,108.5334,251.6037,0,U,50502,999,22167,.13696813E-3,.66E-6,0
ONEWEB-0440,2021-132AL,2026-06-17T21:05:27.769632,13.18685321,.00015799,87.9171,335.3157,87.4364,272.6949,0,U,50503,999,22166,.81265351E-4,.45E-6,0
ONEWEB-0450,2021-132AM,2026-06-17T20:55:57.458784,13.18685657,.0001718,87.9163,335.3222,97.6550,262.4777,0,U,50504,999,22169,.30518745E-4,.25E-6,0
