[
  {
    "name": "ONEWEB-0395",
    "noradId": "50475",
    "line1": "1 50475U 21132G   26168.62481482 -.00000420  00000+0 -12221-2 0  9995",
    "line2": "2 50475  87.8887  20.9802 0002032  88.9632 271.1729 13.11418578215773"
  },
  {
    "name": "ONEWEB-0396",
    "noradId": "50476",
    "line1": "1 50476U 21132H   26168.85012791  .00000007  00000+0 -15608-4 0  9998",
    "line2": "2 50476  87.9173 335.3226 0001914  87.7940 272.3411 13.18685271221729"
  },
  {
    "name": "ONEWEB-0397",
    "noradId": "50477",
    "line1": "1 50477U 21132J   26168.86530571  .00000041  00000+0  70142-4 0  9992",
    "line2": "2 50477  87.9172 335.3195 0001834  84.6624 275.4718 13.18685527221706"
  },
  {
    "name": "ONEWEB-0398",
    "noradId": "50478",
    "line1": "1 50478U 21132K   26168.51631247  .00000206  00000+0  54634-3 0  9997",
    "line2": "2 50478  87.8892  20.9924 0001963  94.2490 265.8862 13.11414333215651"
  },
  {
    "name": "ONEWEB-0399",
    "noradId": "50479",
    "line1": "1 50479U 21132L   26168.50275909  .00000539  00000+0  14836-2 0  9994",
    "line2": "2 50479  87.8894  21.0060 0002130  74.2449 285.8914 13.11416018215647"
  },
  {
    "name": "ONEWEB-0400",
    "noradId": "50480",
    "line1": "1 50480U 21132M   26168.84338828 -.00000057  00000+0 -17618-3 0  9992",
    "line2": "2 50480  87.9171 335.3137 0001888  98.0636 262.0710 13.18685556221690"
  },
  {
    "name": "ONEWEB-0401",
    "noradId": "50481",
    "line1": "1 50481U 21132N   26168.88891167  .00000040  00000+0  68235-4 0  9999",
    "line2": "2 50481  87.9172 335.3020 0001653  89.2835 270.8487 13.18684812221700"
  },
  {
    "name": "ONEWEB-0402",
    "noradId": "50482",
    "line1": "1 50482U 21132P   26168.92770027  .00000027  00000+0  36528-4 0  9991",
    "line2": "2 50482  87.9171 335.2834 0001490  81.2014 278.9287 13.18686293221737"
  },
  {
    "name": "ONEWEB-0403",
    "noradId": "50483",
    "line1": "1 50483U 21132Q   26168.87710813  .00000079  00000+0  16873-3 0  9990",
    "line2": "2 50483  87.9171 335.3179 0001994  91.0026 269.1335 13.18685286221683"
  },
  {
    "name": "ONEWEB-0404",
    "noradId": "50484",
    "line1": "1 50484U 21132R   26168.48409978  .00000086  00000+0  20652-3 0  9993",
    "line2": "2 50484  87.8889  21.0082 0002133  82.4020 277.7350 13.11419334215738"
  },
  {
    "name": "ONEWEB-0405",
    "noradId": "50485",
    "line1": "1 50485U 21132S   26168.89060080  .00000068  00000+0  13868-3 0  9997",
    "line2": "2 50485  87.9173 335.2998 0002074 105.1570 254.9792 13.18686488222085"
  },
  {
    "name": "ONEWEB-0406",
    "noradId": "50486",
    "line1": "1 50486U 21132T   26168.88216820  .00000033  00000+0  51952-4 0  9991",
    "line2": "2 50486  87.9167 335.3178 0002338  85.6567 274.4832 13.18684922221713"
  },
  {
    "name": "ONEWEB-0407",
    "noradId": "50487",
    "line1": "1 50487U 21132U   26168.87544202  .00002546  00000+0  64257-2 0  9990",
    "line2": "2 50487  87.9173 335.3114 0001699  98.8780 261.2544 13.18674990221654"
  },
  {
    "name": "ONEWEB-0409",
    "noradId": "50488",
    "line1": "1 50488U 21132V   26168.10091075  .00000130  00000+0  33060-3 0  9998",
    "line2": "2 50488  87.8893  21.0724 0002119  85.8977 274.2393 13.11420380215576"
  },
  {
    "name": "ONEWEB-0412",
    "noradId": "50489",
    "line1": "1 50489U 21132W   26168.93949349  .00000031  00000+0  45655-4 0  9990",
    "line2": "2 50489  87.9169 335.3067 0001626  86.2750 273.8569 13.18685352221757"
  },
  {
    "name": "ONEWEB-0413",
    "noradId": "50490",
    "line1": "1 50490U 21132X   26168.86869286  .00000126  00000+0  28580-3 0  9997",
    "line2": "2 50490  87.9161 335.3197 0001550  91.4402 268.6908 13.18687047221687"
  },
  {
    "name": "ONEWEB-0414",
    "noradId": "50491",
    "line1": "1 50491U 21132Y   26168.92938162  .00000048  00000+0  89107-4 0  9991",
    "line2": "2 50491  87.9175 335.2893 0001817  87.1642 272.9698 13.18685712221725"
  },
  {
    "name": "ONEWEB-0417",
    "noradId": "50492",
    "line1": "1 50492U 21132Z   26168.86193440  .00000017  00000+0  10775-4 0  9998",
    "line2": "2 50492  87.9163 335.3223 0002078  90.6338 269.5032 13.18685731221693"
  },
  {
    "name": "ONEWEB-0418",
    "noradId": "50493",
    "line1": "1 50493U 21132AA  26168.87190080  .00000081  00000+0  17251-3 0  9993",
    "line2": "2 50493  87.9170 335.3203 0002156  91.0598 269.0781 13.18685020221754"
  },
  {
    "name": "ONEWEB-0419",
    "noradId": "50494",
    "line1": "1 50494U 21132AB  26168.89052171  .00000024  00000+0  27849-4 0  9996",
    "line2": "2 50494  87.9172 335.3161 0002140  96.9167 263.2208 13.18665453221678"
  },
  {
    "name": "ONEWEB-0420",
    "noradId": "50495",
    "line1": "1 50495U 21132AC  26168.93106205  .00000046  00000+0  84614-4 0  9997",
    "line2": "2 50495  87.9163 335.3107 0001667  96.8904 263.2418 13.18686568221673"
  },
  {
    "name": "ONEWEB-0421",
    "noradId": "50496",
    "line1": "1 50496U 21132AD  26168.92431979  .00000019  00000+0  15035-4 0  9997",
    "line2": "2 50496  87.9168 335.3098 0001752  81.1973 278.9358 13.18685182221718"
  },
  {
    "name": "ONEWEB-0424",
    "noradId": "50497",
    "line1": "1 50497U 21132AE  26168.88554167  .00000036  00000+0  58191-4 0  9997",
    "line2": "2 50497  87.9171 335.3157 0002124 100.5048 259.6323 13.18684858221731"
  },
  {
    "name": "ONEWEB-0426",
    "noradId": "50498",
    "line1": "1 50498U 21132AF  26168.92009352 -.00000293  00000+0 -77554-3 0  9994",
    "line2": "2 50498  87.9171 335.2998 0002190  75.8927 284.2449 13.18686592221681"
  },
  {
    "name": "ONEWEB-0427",
    "noradId": "50499",
    "line1": "1 50499U 21132AG  26168.88385596  .00000028  00000+0  37339-4 0  9999",
    "line2": "2 50499  87.9172 335.2959 0002048  90.0072 270.1295 13.18685005221706"
  },
  {
    "name": "ONEWEB-0429",
    "noradId": "50500",
    "line1": "1 50500U 21132AH  26168.87036528  .00000031  00000+0  45772-4 0  9993",
    "line2": "2 50500  87.9165 335.3229 0001756  94.5682 265.5651 13.18685480221670"
  },
  {
    "name": "ONEWEB-0430",
    "noradId": "50501",
    "line1": "1 50501U 21132AJ  26168.85855735  .00000004  00000+0 -21747-4 0  9998",
    "line2": "2 50501  87.9164 335.3234 0001825 101.1831 258.9506 13.18686599221716"
  },
  {
    "name": "ONEWEB-0432",
    "noradId": "50502",
    "line1": "1 50502U 21132AK  26168.90268442  .00000066  00000+0  13697-3 0  9999",
    "line2": "2 50502  87.9169 335.2931 0002205 108.5334 251.6037 13.17154964221676"
  },
  {
    "name": "ONEWEB-0440",
    "noradId": "50503",
    "line1": "1 50503U 21132AL  26168.87879363  .00000045  00000+0  81265-4 0  9990",
    "line2": "2 50503  87.9171 335.3157 0001579  87.4364 272.6949 13.18685321221663"
  },
  {
    "name": "ONEWEB-0450",
    "noradId": "50504",
    "line1": "1 50504U 21132AM  26168.87219281  .00000025  00000+0  30519-4 0  9992",
    "line2": "2 50504  87.9163 335.3222 0001718  97.6550 262.4777 13.18685657221694"
  }
]